ONEWEB-0045             
1 45151U 20008W   25130.46928920 -.00000268  00000+0 -79247-3 0  9996
2 45151  87.8810 101.3052 0001914  83.1176 277.0170 13.11411898257626
ONEWEB-0047             
1 45152U 20008X   25130.43966078 -.00000464  00000+0 -13661-2 0  9995
2 45152  87.8792 116.5701 0001999  84.8103 275.3253 13.10370419255450
ONEWEB-0048             
1 45153U 20008Y   25130.43468236 -.00000254  00000+0 -76410-3 0  9998
2 45153  87.8792 116.5938 0002030  85.8599 274.2760 13.10368831255063
ONEWEB-0049             
1 45154U 20008Z   25130.43716971 -.00000391  00000+0 -11574-2 0  9992
2 45154  87.8796 116.5856 0002525  86.1526 273.9890 13.10368827255289
ONEWEB-0051             
1 45155U 20008AA  25130.39130457 -.00000155  00000+0 -47359-3 0  9996
2 45155  87.8809 101.3642 0002002  87.7548 272.3809 13.11414030258297
ONEWEB-0052             
1 45156U 20008AB  25130.43219768 -.00000116  00000+0 -36803-3 0  9994
2 45156  87.8788 116.5323 0002572  83.2082 276.9337 13.10369901255191
ONEWEB-0053             
1 45157U 20008AC  25130.49114007  .00000621  00000+0  17422-2 0  9995
2 45157  87.8793 116.5809 0001840  77.5790 282.5543 13.10371122255174
ONEWEB-0054             
1 45158U 20008AD  25130.44961478 -.00000681  00000+0 -19863-2 0  9992
2 45158  87.8790 116.5652 0002078  88.5890 271.5476 13.10373035255285
